$$SOE
2460147.500000000, A.D. 2023-Jul-22 00:00:00.0000, -1.514158872028211E+07, -3.399267984821610E+08, -2.512169938411017E+07,
2460154.500000000, A.D. 2023-Jul-29 00:00:00.0000, -3.072865977120874E+06, -3.394002362970106E+08, -2.465803741500080E+07,
2460161.500000000, A.D. 2023-Aug-05 00:00:00.0000, 8.999579771121278E+06, -3.384556535025821E+08, -2.416400410154456E+07,
2460168.500000000, A.D. 2023-Aug-12 00:00:00.0000, 2.106079188726363E+07, -3.370909946445246E+08, -2.363997793598069E+07,
2460175.500000000, A.D. 2023-Aug-19 00:00:00.0000, 3.309559867502273E+07, -3.353047533551396E+08, -2.308638471747610E+07,
2460182.500000000, A.D. 2023-Aug-26 00:00:00.0000, 4.508863389933022E+07, -3.330959911306452E+08, -2.250369818768065E+07,
2460189.500000000, A.D. 2023-Sep-02 00:00:00.0000, 5.702435885168429E+07, -3.304643555354887E+08, -2.189244056969094E+07,
2460196.500000000, A.D. 2023-Sep-09 00:00:00.0000, 6.888708599979915E+07, -3.274100977409661E+08, -2.125318300711463E+07,
2460203.500000000, A.D. 2023-Sep-16 00:00:00.0000, 8.066100438293663E+07, -3.239340893208437E+08, -2.058654591369897E+07,
2460210.500000000, A.D. 2023-Sep-23 00:00:00.0000, 9.233020714926270E+07, -3.200378378800136E+08, -1.989319923867047E+07,
2460217.500000000, A.D. 2023-Sep-30 00:00:00.0000, 1.038787208617831E+08, -3.157235001849309E+08, -1.917386250987627E+07,
2460224.500000000, A.D. 2023-Oct-07 00:00:00.0000, 1.152905341712999E+08, -3.109938931939636E+08, -1.842930447408165E+07,
2460231.500000000, A.D. 2023-Oct-14 00:00:00.0000, 1.265496268356584E+08, -3.058525061533718E+08, -1.766034269209394E+07,
2460238.500000000, A.D. 2023-Oct-21 00:00:00.0000, 1.376400022410273E+08, -3.003035120125459E+08, -1.686784324625154E+07,
2460245.500000000, A.D. 2023-Oct-28 00:00:00.0000, 1.485457219128357E+08, -2.943517757607207E+08, -1.605272023792595E+07,
2460252.500000000, A.D. 2023-Nov-04 00:00:00.0000, 1.592509406620694E+08, -2.880028603213940E+08, -1.521593501696721E+07,
2460259.500000000, A.D. 2023-Nov-11 00:00:00.0000, 1.697399424251272E+08, -2.812630304749401E+08, -1.435849520292073E+07,
2460266.500000000, A.D. 2023-Nov-18 00:00:00.0000, 1.799971768827025E+08, -2.741392547519267E+08, -1.348145351897879E+07,
2460273.500000000, A.D. 2023-Nov-25 00:00:00.0000, 1.900072967814688E+08, -2.666392051622448E+08, -1.258590644025721E+07,
2460280.500000000, A.D. 2023-Dec-02 00:00:00.0000, 1.997551958225812E+08, -2.587712546688053E+08, -1.167299265806177E+07,
2460287.500000000, A.D. 2023-Dec-09 00:00:00.0000, 2.092260470179100E+08, -2.505444723725465E+08, -1.074389137192646E+07,
2460294.500000000, A.D. 2023-Dec-16 00:00:00.0000, 2.184053416163087E+08, -2.419686163187652E+08, -9.799820436176628E+06,
2460301.500000000, A.D. 2023-Dec-23 00:00:00.0000, 2.272789287550600E+08, -2.330541231809285E+08, -8.842034339463905E+06,
2460308.500000000, A.D. 2023-Dec-30 00:00:00.0000, 2.358330542912383E+08, -2.238120937368370E+08, -7.871821812699527E+06,
2460315.500000000, A.D. 2024-Jan-06 00:00:00.0000, 2.440543968235610E+08, -2.142542764767685E+08, -6.890503101775631E+06,
2460322.500000000, A.D. 2024-Jan-13 00:00:00.0000, 2.519301038550256E+08, -2.043930511439651E+08, -5.899427351790518E+06,
2460329.500000000, A.D. 2024-Jan-20 00:00:00.0000, 2.594478290984966E+08, -1.942414091387944E+08, -4.899969972515568E+06,
2460336.500000000, A.D. 2024-Jan-27 00:00:00.0000, 2.665957686754706E+08, -1.838129301752622E+08, -3.893529756704256E+06,
2460343.500000000, A.D. 2024-Feb-03 00:00:00.0000, 2.733626955588056E+08, -1.731217562012765E+08, -2.881525801951550E+06,
2460350.500000000, A.D. 2024-Feb-10 00:00:00.0000, 2.797379923193579E+08, -1.621825629576519E+08, -1.865394299261972E+06,
2460357.500000000, A.D. 2024-Feb-17 00:00:00.0000, 2.857116821045530E+08, -1.510105292731985E+08, -8.465852156126201E+05,
2460364.500000000, A.D. 2024-Feb-24 00:00:00.0000, 2.912744576836191E+08, -1.396213042078246E+08, 1.734411110726818E+05,
2460371.500000000, A.D. 2024-Mar-02 00:00:00.0000, 2.964177083987076E+08, -1.280309722239737E+08, 1.193217441812322E+06,
2460378.500000000, A.D. 2024-Mar-09 00:00:00.0000, 3.011335449817824E+08, -1.162560166157255E+08, 2.211273134870820E+06,
2460385.500000000, A.D. 2024-Mar-16 00:00:00.0000, 3.054148224685240E+08, -1.043132811784399E+08, 3.226137632891871E+06,
2460392.500000000, A.D. 2024-Mar-23 00:00:00.0000, 3.092551609673565E+08, -9.221992920515190E+07, 4.236344020150322E+06,
2460399.500000000, A.D. 2024-Mar-30 00:00:00.0000, 3.126489619297752E+08, -7.999340005506772E+07, 5.240432835154958E+06,
2460406.500000000, A.D. 2024-Apr-06 00:00:00.0000, 3.155914200757896E+08, -6.765136689655574E+07, 6.236955820498135E+06,
2460413.500000000, A.D. 2024-Apr-13 00:00:00.0000, 3.180785344344332E+08, -5.521169502603351E+07, 7.224479331962017E+06,
2460420.500000000, A.D. 2024-Apr-20 00:00:00.0000, 3.201071174782404E+08, -4.269239832609127E+07, 8.201587692150624E+06,
2460427.500000000, A.D. 2024-Apr-27 00:00:00.0000, 3.216748007914698E+08, -3.011159466402915E+07, 9.166886561169408E+06,
2460434.500000000, A.D. 2024-May-04 00:00:00.0000, 3.227800373478404E+08, -1.748746117064423E+07, 1.011900623935429E+07,
2460441.500000000, A.D. 2024-May-11 00:00:00.0000, 3.234221006586383E+08, -4.838189737893226E+06, 1.105660485516488E+07,
2460448.500000000, A.D. 2024-May-18 00:00:00.0000, 3.236010809242407E+08, 7.818057045924531E+06, 1.197837141835732E+07,
2460455.500000000, A.D. 2024-May-25 00:00:00.0000, 3.233178782842001E+08, 2.046318927684745E+07, 1.288302872278175E+07,
2460462.500000000, A.D. 2024-Jun-01 00:00:00.0000, 3.225741933119718E+08, 3.307923214290220E+07, 1.376933607642183E+07,
2460469.500000000, A.D. 2024-Jun-08 00:00:00.0000, 3.213725151025607E+08, 4.564836711602862E+07, 1.463609182245891E+07,
2460476.500000000, A.D. 2024-Jun-15 00:00:00.0000, 3.197161074663543E+08, 5.815297226821289E+07, 1.548213564782505E+07,
2460483.500000000, A.D. 2024-Jun-22 00:00:00.0000, 3.176089923531721E+08, 7.057566270499665E+07, 1.630635085832843E+07,
2460490.500000000, A.D. 2024-Jun-29 00:00:00.0000, 3.150559285445977E+08, 8.289932913199799E+07, 1.710766666111628E+07,
2460497.500000000, A.D. 2024-Jul-06 00:00:00.0000, 3.120623884325286E+08, 9.510717192652895E+07, 1.788506000516916E+07,
2460504.500000000, A.D. 2024-Jul-13 00:00:00.0000, 3.086345350037504E+08, 1.071827334008875E+08, 1.863755702710014E+07,
2460511.500000000, A.D. 2024-Jul-20 00:00:00.0000, 3.047791972257919E+08, 1.191099292927324E+08, 1.936423437616569E+07,
2460518.500000000, A.D. 2024-Jul-27 00:00:00.0000, 3.005038433694572E+08, 1.308730784289803E+08, 2.006422040021677E+07,
2460525.500000000, A.D. 2024-Aug-03 00:00:00.0000, 2.958165527365002E+08, 1.424569301128750E+08, 2.073669613827038E+07,
2460532.500000000, A.D. 2024-Aug-10 00:00:00.0000, 2.907259861549634E+08, 1.538466891737588E+08, 2.138089610683528E+07,
2460539.500000000, A.D. 2024-Aug-17 00:00:00.0000, 2.852413554857530E+08, 1.650280386644982E+08, 2.199610888149878E+07,
2460546.500000000, A.D. 2024-Aug-24 00:00:00.0000, 2.793723923623462E+08, 1.759871601662717E+08, 2.258167747480477E+07,
2460553.500000000, A.D. 2024-Aug-31 00:00:00.0000, 2.731293164699915E+08, 1.867107516393390E+08, 2.313699950151239E+07,
2460560.500000000, A.D. 2024-Sep-07 00:00:00.0000, 2.665228039168582E+08, 1.971860429624559E+08, 2.366152711580543E+07,
2460567.500000000, A.D. 2024-Sep-14 00:00:00.0000, 2.595639559607544E+08, 2.074008101836483E+08, 2.415476680161318E+07,
2460574.500000000, A.D. 2024-Sep-21 00:00:00.0000, 2.522642662229689E+08, 2.173433889354039E+08, 2.461627924367514E+07,
2460581.500000000, A.D. 2024-Sep-28 00:00:00.0000, 2.446355860593984E+08, 2.270026838526435E+08, 2.504567907168429E+07,
2460588.500000000, A.D. 2024-Oct-05 00:00:00.0000, 2.366900919181849E+08, 2.363681740677268E+08, 2.544263415237294E+07,
2460595.500000000, A.D. 2024-Oct-12 00:00:00.0000, 2.284402544611752E+08, 2.454299178361533E+08, 2.580686471558785E+07,
2460602.500000000, A.D. 2024-Oct-19 00:00:00.0000, 2.198988078214946E+08, 2.541785561085902E+08, 2.613814246337648E+07,
2460609.500000000, A.D. 2024-Oct-26 00:00:00.0000, 2.110787190801087E+08, 2.626053143434809E+08, 2.643628961084090E+07,
2460616.500000000, A.D. 2024-Nov-02 00:00:00.0000, 2.019931583234481E+08, 2.707020025121265E+08, 2.670117783414896E+07,
2460623.500000000, A.D. 2024-Nov-09 00:00:00.0000, 1.926554694713258E+08, 2.784610134199886E+08, 2.693272712918366E+07,
2460630.500000000, A.D. 2024-Nov-16 00:00:00.0000, 1.830791419807884E+08, 2.858753194491160E+08, 2.713090458847633E+07,
2460637.500000000, A.D. 2024-Nov-23 00:00:00.0000, 1.732777835390402E+08, 2.929384677777202E+08, 2.729572309737264E+07,
2460644.500000000, A.D. 2024-Nov-30 00:00:00.0000, 1.632650940067028E+08, 2.996445741426849E+08, 2.742723993587449E+07,
2460651.500000000, A.D. 2024-Dec-07 00:00:00.0000, 1.530548410734591E+08, 3.059883156783395E+08, 2.752555529135373E+07,
2460658.500000000, A.D. 2024-Dec-14 00:00:00.0000, 1.426608369736678E+08, 3.119649241681169E+08, 2.759081085443464E+07,
2460665.500000000, A.D. 2024-Dec-21 00:00:00.0000, 1.320969139666582E+08, 3.175701785734422E+08, 2.762318861785230E+07,
2460672.500000000, A.D. 2024-Dec-28 00:00:00.0000, 1.213769005670108E+08, 3.228003939860775E+08, 2.762290946553949E+07,
2460679.500000000, A.D. 2025-Jan-04 00:00:00.0000, 1.105146011420150E+08, 3.276524094953647E+08, 2.759023151800814E+07,
2460686.500000000, A.D. 2025-Jan-11 00:00:00.0000, 9.952377706713021E+07, 3.321235767253195E+08, 2.752544854326598E+07,
2460693.500000000, A.D. 2025-Jan-18 00:00:00.0000, 8.841812852028206E+07, 3.362117482077811E+08, 2.742888844738451E+07,
2460700.500000000, A.D. 2025-Jan-25 00:00:00.0000, 7.721127714593124E+07, 3.399152651972283E+08, 2.730091178794582E+07,
2460707.500000000, A.D. 2025-Feb-01 00:00:00.0000, 6.591674975570682E+07, 3.432329449752555E+08, 2.714191029501551E+07,
2460714.500000000, A.D. 2025-Feb-08 00:00:00.0000, 5.454796309501373E+07, 3.461640677449723E+08, 2.695230540154879E+07,
$$EOE